MAKERSAT 0              
1 43016U 17073D   26047.14599694  .00027419  00000+0  84829-3 0  9994
2 43016  97.4831 289.0637 0119341 342.8546  16.8675 15.26660482447967
SIRION PATHFINDER-2     
1 43759U 18099B   26047.09691354  .00006541  00000+0  37103-3 0  9993
2 43759  97.4441  99.0315 0009035   8.9965 351.1426 15.13260326394300
CORVUS BC4              
1 43767U 18099K   26047.07736200  .00005991  00000+0  35839-3 0  9992
2 43767  97.4251  93.5854 0009841  64.7133 295.5116 15.11368277394104
SPACEBEE-7              
1 43816U 18099BL  26047.17171741  .00396926  00000+0  16791-2 0  9997
2 43816  97.4537 132.0577 0005935 270.9964  89.0626 15.84361838395783
M2 PATHFINDER           
1 45727U 20037E   26047.05812817  .00003678  00000+0  27027-3 0  9992
2 45727  97.8160 236.9459 0011385 195.8852 164.2018 15.04030122307282
NETSAT-4                
1 46504U 20068U   26046.95182671  .00020070  00000+0  51356-3 0  9993
2 46504  97.8626  45.8445 0007657  50.1475 310.0442 15.39434669297097
NETSAT-3                
1 46505U 20068V   26046.98824982  .00020752  00000+0  55486-3 0  9990
2 46505  97.8658  44.2789 0007859  62.9740 297.2305 15.38072499297022
NETSAT-1                
1 46506U 20068W   26047.19096975  .00016754  00000+0  55612-3 0  9996
2 46506  97.8722  40.1535 0007943  76.8216 283.3909 15.31284236296768
NETSAT-2                
1 46507U 20068X   26046.98551807  .00023248  00000+0  57516-3 0  9994
2 46507  97.8634  45.4426 0007011  74.0343 286.1674 15.40436469297044
WILDTRACKCUBE-SIMBA     
1 47941U 21022K   26046.01930020  .00356982  50192-4  11012-2 0  9996
2 47941  97.3982 326.0755 0008783 107.3791 252.8444 15.91678184272210
GREENCUBE (IO-117)      
1 53109U 22080E   26046.16533330 -.00000003  00000+0  00000+0 0  9994
2 53109  70.1652 340.6805 0009131 315.8080  44.1850  6.42583132 84228
SITRO-AIS 5 (KATYS)     
1 57176U 23091L   26047.24802875  .00014692  00000+0  56494-3 0  9998
2 57176  97.5233 110.1677 0012635 164.0103 196.1537 15.26439449145876
SITRO-AIS 6 (CHIRKIN)   
1 57192U 23091AC  26047.24661584  .00007880  00000+0  32692-3 0  9991
2 57192  97.5237 109.8437 0013111 163.0524 197.1153 15.24063394145856
SITRO-AIS 8 (ANOKHIN)   
1 57193U 23091AD  26047.26139987  .00017207  00000+0  61876-3 0  9991
2 57193  97.5226 111.3266 0011913 161.1755 198.9927 15.28624433145956
SITRO-AIS 7 (FARTUSHNIY)
1 57194U 23091AE  26047.29351284  .00006343  00000+0  26558-3 0  9998
2 57194  97.5235 109.7694 0012857 164.0870 196.0774 15.23838145145851
SITRO-AIS 10 (BURDAEV)  
1 57199U 23091AK  26047.29490904  .00021413  00000+0  65609-3 0  9991
2 57199  97.5238 115.2998 0008377 139.6512 220.5354 15.33783828146206
SITRO-AIS 9 (SHCHUKIN)  
1 57201U 23091AM  26047.28806796  .00021874  00000+0  67765-3 0  9990
2 57201  97.5236 115.1042 0008433 139.9982 220.1882 15.33427789146195
SITRO-AIS 12 (SMIRENNIY)
1 57204U 23091AQ  26047.29981294  .00021250  00000+0  65339-3 0  9994
2 57204  97.5248 115.5142 0008333 134.7694 225.4228 15.33674187146219
SITRO-AIS 11 (SHEFFER)  
1 57208U 23091AU  26047.27758448  .00022506  00000+0  68484-3 0  9998
2 57208  97.5246 115.6712 0008192 134.5277 225.6636 15.33994283146221
SITRO-AIS 25            
1 59066U 24039R   26047.26626675  .00004576  00000+0  36304-3 0  9993
2 59066  95.3951 152.0411 0148323  31.2898 329.7049 14.92436311106685
SITRO-AIS 26            
1 59067U 24039S   26047.25200106  .00004382  00000+0  34915-3 0  9991
2 59067  95.3954 151.9523 0148664  31.8254 329.1848 14.92253805106676
SITRO-AIS 27            
1 59068U 24039T   26047.25499105  .00004472  00000+0  35336-3 0  9999
2 59068  95.3954 152.1724 0147756  30.6935 330.2829 14.92645015106699
SITRO-AIS 28            
1 59071U 24039U   26047.23522413  .00005332  00000+0  42057-3 0  9994
2 59071  95.3954 152.1994 0147609  30.6460 330.3283 14.92679632106699
GRBBETA                 
1 60237U 24128C   26046.99037469  .00004991  00000+0  34897-3 0  9996
2 60237  61.9896 281.1560 0053369 109.8968 250.7886 15.05523274 88016
OOV-CUBE (TUBSAT-30)    
1 60240U 24128F   26047.12865174  .00003028  00000+0  23772-3 0  9998
2 60240  61.9949 287.5005 0056144 107.9570 252.7652 15.02087747 87924
ROBUSTA-3A (MEDITERRAN*)
1 60243U 24128J   26047.00794482  .00009151  00000+0  55994-3 0  9995
2 60243  61.9860 276.1441 0053778 104.2560 256.4515 15.09636923 88110
LASARSAT                
1 62391U 24247Q   26046.49205971  .00040310  00000+0  10369-2 0  9993
2 62391  44.9742 222.1749 0003471 259.9611 100.0884 15.38650391 64527
CROCUBE                 
1 62394U 24247T   26046.86166633  .00036513  00000+0  90951-3 0  9994
2 62394  44.9723 218.9433 0003577 248.5034 111.5472 15.39673977 64595
